[
    {
        "Altitude(m)": 605470.7987078547,
        "Argument of Periapsis(deg)": 0.0,
        "Eccentricity": 0.0,
        "Inclination(deg)": 60.0,
        "Latitude(deg)": 27.988234426679192,
        "Longitude(deg)": 87.26293202973916,
        "Mean Anomaly(deg)": 147.2727,
        "RAAN(deg)": 25.0,
        "Satellite Name": "Test1 119",
        "Satellite Number": 119,
        "Semi-Major Axis(m)": 6980739.136638005,
        "Time(s)": 0
    },
    {
        "Altitude(m)": 605395.8365374224,
        "Argument of Periapsis(deg)": 0.00010418945913296404,
        "Eccentricity": 0.0,
        "Inclination(deg)": 60.0,
        "Latitude(deg)": 27.473925301127924,
        "Longitude(deg)": 87.61612022185167,
        "Mean Anomaly(deg)": 147.8928061454618,
        "RAAN(deg)": 24.99957995086026,
        "Satellite Name": "Test1 119",
        "Satellite Number": 119,
        "Semi-Major Axis(m)": 6980739.136638005,
        "Time(s)": 10
    }
]